#dP2018 10 21  0  0  0.00000000      96 __u+U IGS08 FIT  IAC
## 2024      0.00000000   900.00000000 58412 0.0000000000000
+   92   C01C02C03C04C05C06C07C08C09C10C11C12C13C14E01E02E03
+        E04E05E07E08E09E11E12E14E18E19E21E24E25E26E27E30E31
+        G01G02G03G05G06G07G08G09G10G11G12G13G14G15G16G17G18
+        G19G20G21G22G23G24G25G26G27G28G29G30G31G32J01J02J03
+        J07R01R02R03R04R05R07R08R09R10R11R13R14R15R16R17R18
+        R19R20R21R22R23R24R26  0  0  0  0  0  0  0  0  0  0
++        12 12 12 12 12  8  8  8  8  8  7  7  7  7  7  7  7
++         7  7  7  7  7  7  7  7  7  7  7  7  7  7  7  7  6
++         3  3  3  3  3  3  3  3  3  3  3  3  3  3  3  3  3
++         3  3  3  3  3  3  3  3  3  3  3  3  3  3  9 10 10
++        17  5  5  5  5  5  5  5  5  5  5  5  5  5  5  7  5
++         5  5  5  7  5  5  8  0  0  0  0  0  0  0  0  0  0
%c M  cc GPS ccc cccc cccc cccc cccc ccccc ccccc ccccc ccccc
%c cc cc ccc ccc cccc cccc cccc cccc ccccc ccccc ccccc ccccc
%f  1.2500000  1.025000000  0.00000000000  0.000000000000000
%f  0.0000000  0.000000000  0.00000000000  0.000000000000000
%i    0    0    0    0      0      0      0      0         0
%i    0    0    0    0      0      0      0      0         0
/* INFORMATION & ANALYSIS CENTER (IAC)            FINAL DATA
/* S/V CLOCKS ARE ALIGNED TO GPS & GLONASS TIME RESPECTIVELY
/* USING THE BROADCAST EPHEMERIS                            
/* PCV:IGS14_2022 OL/AL:FES2004  NONE     YN ORB:CoN CLK:CoN
*  2018 10 21  7 30  0.00000000
PC01 -32329.009222  27055.956788  -1071.230560   -214.884282
PC02   4422.600966  41906.168666    589.769973    -41.089623
PC03 -14764.769432  39519.281803   -481.604276   -231.561510
PC04 -39660.150411  14308.449150   -541.783565     73.952952
PC05  21929.504927  36011.480373    857.922116    209.954254
PC06  -8554.023764  25452.870318  32863.466787    400.232470
PC07 -23692.652737  25947.474968 -23495.667677   -104.046754
PC08 -16245.775923  37699.279698  -8910.312322      4.820916
PC09   7082.727295  34233.517678  23984.499479    216.363642
PC10  -8531.655757  27403.790084 -30847.826505   -171.363655
PC11   4148.941737 -23333.509485  14857.926213     -5.032503
PC12  14422.300222  -5717.163155  23258.376041    163.101941
PC13  -5911.328944  40990.708938   7167.417062   -336.407955
PC14  10479.799952 -13332.969156 -22118.641603    649.426421
PE01  -2544.135970  17883.507722 -23442.313964   -460.656295
PE02   2485.278753 -17877.156098  23469.276554     32.002737
PE03  -8310.284455 -22032.379892 -17946.149574    -90.649902
PE04  23156.488617  18386.185675   1379.590833   -142.086348
PE05  11503.566801 -12782.568444 -24093.942362    173.310512
PE07 -24519.388190  -3913.316196  16125.833601    -60.451919
PE08 -23353.531262 -18150.147116  -1339.973550   6478.797149
PE09  24486.978676   3773.433116 -16182.411205   6641.564756
PE11  16646.450219  -4412.211725  24067.076977   5698.789941
PE12  11848.571679  17941.651774  20347.704804   5319.427494
PE14 -20355.226845 -16814.571390 -12483.411290   6501.534678
PE18  12287.917141  25282.563946   -397.300883   5816.763831
PE19   6508.517112  21543.439154  19229.133578    -11.259471
PE21 -21752.172964  17108.860425 -10509.986372   -500.533430
PE24  27827.210224  -6457.183538  -7777.739426   6430.686559
PE25  21747.203805 -17109.246787  10513.283595   2007.058499
PE26 -11755.841131  23485.290005 -13639.409227   5340.548593
PE27 -27705.142849   6142.463658   8439.552110    606.788200
PE30 -17921.001770  -8123.950482  22113.197087   5415.684821
PE31  17408.200791   8398.215770 -22400.509847   1004.373705
PG01  13745.248410 -22464.068805   1612.975771   -103.276464
PG02 -17507.092723   6774.865299 -18125.231925    -36.062953
PG03  13428.112926 -13303.343953 -18668.776196    151.426416
PG05 -26230.930192   3473.839544   3225.036324     -0.796001
PG06 -11833.486868  -9374.782657 -21821.465517    346.393547
PG07   3019.756821 -23105.893576  12541.395758    102.955975
PG08  12633.123565  -8149.188562  21941.688432   -119.360703
PG09  -4324.127700 -23234.291962 -12157.814748    498.895965
PG10  17138.898773  11405.003315  16920.134209    172.659956
PG11   9850.069394 -22138.806826  10562.731696   -707.895043
PG12 -18011.112657  10282.138453 -16681.361060    298.195970
PG13 -16084.769903   -515.355862  21021.783717    -86.556440
PG14  17528.396244  15525.323595 -12399.608409    -96.544795
PG15  -9952.520103  12730.304458  20793.388852   -342.411723
PG16  26732.149651    693.567249   1497.733860      3.127871
PG17 -14525.634797 -21950.873561  -3605.585527    -41.512752
PG18  16761.793357 -17454.234632  10290.396423     70.567425
PG19 -17305.754655 -14972.849518 -13668.918794   -391.521652
PG20   7464.910324  14644.384726  20755.906281    517.590996
PG21   1619.689789  22182.450891  15359.778766   -317.792212
PG22  20227.414509 -11323.417884 -12703.702060   -552.584956
PG23   3628.913826 -18730.606546 -18002.135405   -208.198685
PG24 -15251.789111  20550.947642   6347.307645    -57.036594
PG25  -4615.273277  14857.666415 -21677.151369   -664.908615
PG26  24758.323320   4973.799326  -8475.355587     15.681718
PG27  17564.132497   3406.272335  19635.168075     -7.746769
PG28 -13833.921179 -13473.713707  18834.427736    750.793412
PG29   2136.973879  22956.867990 -13205.171922    352.675585
PG30  -5829.530777 -17272.121676  19278.703995      7.100866
PG31  13624.031506   6764.820370 -21755.540490     85.266413
PG32  16618.494943  20145.054184  -5076.458351   -385.734704
PJ01 -26623.796633  25243.955078  25814.602048   -305.650368
PJ02 -34663.398373  23785.827387   3432.042197      0.298631
PJ03 -20449.068828  22023.769145 -24997.911695      0.373282
PJ07 -25366.654093  33677.088014     49.011291    170.495850
PR01  -6362.881383 -13819.704785 -20482.292844     33.771874
PR02 -21574.030857 -12753.953945  -4574.289546    335.537683
PR03 -21812.582622  -3695.781617  12692.540575    146.537955
PR04  -8872.243769   7727.361927  22641.125133    280.715718
PR05   8469.799092  14140.704003  19479.149723     13.616482
PR07  21680.992395   3505.722515 -12976.583703    -49.802557
PR08   9579.188528  -7279.927876 -22447.165052     20.837233
PR09  13387.919893   3476.202029 -21397.842975     34.535930
PR10  21569.027349  -8592.531053 -10479.117950     33.917548
PR11  17804.723525 -16534.590797   7705.068096    -44.567145
PR13 -12819.490403  -3528.575805  21760.299721    -15.937024
PR14 -21614.666160   8637.508575  10472.670710     32.190947
PR15 -20107.282223  15275.364883  -3214.511192    -18.026885
PR16  -4232.981209  14863.128192 -20272.131647    104.449130
PR17 -10629.370118    858.830962 -23164.953495    173.949751
PR18  -6363.765456  18095.273216 -16830.760651     26.371067
PR19    814.434258  25463.747722  -1157.210346    -60.863406
PR20   8367.381183  17509.244163  16582.167884   -356.331093
PR21  10503.680565  -1456.837330  23198.410757    -10.057616
PR22   5531.239459 -19662.716590  15202.385020    -64.920859
PR23  -3289.902696 -25075.184955  -3370.024580    185.688486
PR24  -9060.040744 -16238.270849 -17485.160673   -172.823148
PR26   8330.475253  18494.892410  15455.532750     25.501747
EOF
